[{"OBJECT_NAME":"ICEYE-X64","OBJECT_ID":"2026-004L","EPOCH":"2026-03-09T22:08:51.177984","MEAN_MOTION":14.87676909,"ECCENTRICITY":0.00074629,"INCLINATION":97.8018,"RA_OF_ASC_NODE":69.1111,"ARG_OF_PERICENTER":100.9469,"MEAN_ANOMALY":259.2588,"EPHEMERIS_TYPE":0,"CLASSIFICATION_TYPE":"U","NORAD_CAT_ID":67373,"ELEMENT_SET_NO":999,"REV_AT_EPOCH":853,"BSTAR":0.00035385661,"MEAN_MOTION_DOT":3.169e-5,"MEAN_MOTION_DDOT":0},{"OBJECT_NAME":"COSMOS 220","OBJECT_ID":"1968-040A","EPOCH":"2026-03-09T21:34:53.700096","MEAN_MOTION":14.8069564,"ECCENTRICITY":0.00352383,"INCLINATION":74.0276,"RA_OF_ASC_NODE":17.03,"ARG_OF_PERICENTER":304.0843,"MEAN_ANOMALY":55.699,"EPHEMERIS_TYPE":0,"CLASSIFICATION_TYPE":"U","NORAD_CAT_ID":3229,"ELEMENT_SET_NO":999,"REV_AT_EPOCH":7569,"BSTAR":0.00019482875,"MEAN_MOTION_DOT":1.478e-5,"MEAN_MOTION_DDOT":0}]
